MULTIPOLYGON (((15.2782206 -4.3230721, 15.2749814 -4.3208084, 15.2746228 -4.3205466, 15.2715459 -4.3197729, 15.2674085 -4.3181076, 15.2662799 -4.3177041, 15.2652011 -4.3170465, 15.26535 -4.3169019, 15.265186 -4.3166583, 15.2655915 -4.3164644, 15.265739 -4.3162531, 15.2657766 -4.3159856, 15.2658221 -4.3156807, 15.2657712 -4.3153089, 15.2658234 -4.3149934, 15.2658704 -4.3146858, 15.2661521 -4.3144183, 15.2663371 -4.3141561, 15.2668655 -4.3137671, 15.2670599 -4.3136574, 15.267469 -4.313545, 15.267697 -4.3132402, 15.2679129 -4.3129366, 15.268271 -4.3126664, 15.2685258 -4.3124846, 15.2687108 -4.3123588, 15.2688611 -4.3122091, 15.2693009 -4.3118212, 15.2695477 -4.3115191, 15.2698099 -4.3112649, 15.269935 -4.3111029, 15.2703711 -4.310607, 15.270634 -4.3103395, 15.2708068 -4.310011, 15.2710515 -4.3097388, 15.2712466 -4.3095562, 15.2715699 -4.3091029, 15.271818 -4.308691, 15.27229 -4.3081093, 15.27239 -4.3078601, 15.2725758 -4.3075468, 15.2729063 -4.3069741, 15.2731011 -4.3067189, 15.2733415 -4.3064986, 15.2738349 -4.3059696, 15.2741568 -4.3056701, 15.2743958 -4.3054396, 15.2746533 -4.3049849, 15.2749618 -4.3043564, 15.2751996 -4.3040677, 15.2753557 -4.3038038, 15.275572 -4.3034456, 15.2759225 -4.3030915, 15.276231 -4.3027119, 15.2764941 -4.3025242, 15.2767283 -4.3023666, 15.2770563 -4.3020459, 15.2773366 -4.3018627, 15.2776054 -4.3015999, 15.2778928 -4.301391, 15.2781935 -4.3012756, 15.2784491 -4.3010908, 15.2787798 -4.3010638, 15.2791765 -4.3008448, 15.2795508 -4.3004973, 15.2799343 -4.3002218, 15.2801516 -4.2999383, 15.280342 -4.299858, 15.2809375 -4.2998233, 15.2815345 -4.3000528, 15.2817491 -4.3004514, 15.2816606 -4.3008338, 15.2818651 -4.3009469, 15.2819717 -4.3011628, 15.2821769 -4.3013139, 15.2823016 -4.3015479, 15.2820491 -4.301349, 15.2817309 -4.3013251, 15.2819103 -4.3015796, 15.2821743 -4.3017898, 15.2829745 -4.3020879, 15.2834843 -4.3020653, 15.2837769 -4.3019625, 15.2843884 -4.3021364, 15.2847236 -4.3024119, 15.2850031 -4.3028641, 15.2853201 -4.3030275, 15.2856359 -4.3032512, 15.2860069 -4.3033045, 15.2862222 -4.3033899, 15.2870945 -4.303759, 15.2876644 -4.303763, 15.2883081 -4.3038473, 15.2888714 -4.303858, 15.2893676 -4.303771, 15.2896719 -4.3036423, 15.2899652 -4.3036308, 15.2902023 -4.3035843, 15.2905223 -4.3035254, 15.2907705 -4.3035504, 15.2913165 -4.3032249, 15.2915794 -4.3031634, 15.2918717 -4.3032423, 15.2920491 -4.3030229, 15.2923572 -4.3028586, 15.2930761 -4.3025135, 15.2934167 -4.3022809, 15.2936179 -4.3021859, 15.2936581 -4.3019385, 15.2942401 -4.3017005, 15.2945982 -4.301675, 15.294782 -4.3014758, 15.2951102 -4.3012943, 15.2958721 -4.3013687, 15.2961847 -4.301358, 15.2968821 -4.3015506, 15.2973877 -4.3016185, 15.2983734 -4.3015292, 15.2985263 -4.3013594, 15.2984995 -4.3010104, 15.298828 -4.3009114, 15.299062 -4.3007683, 15.2993132 -4.3007315, 15.2995991 -4.3007964, 15.2997816 -4.3006546, 15.3005111 -4.3004112, 15.3008536 -4.3002242, 15.3011345 -4.3001024, 15.3015813 -4.2998923, 15.3025488 -4.2996211, 15.3040785 -4.2990592, 15.3056659 -4.2987715, 15.3054605 -4.2982003, 15.305719 -4.2983043, 15.3056299 -4.2985669, 15.3057608 -4.2987577, 15.3065354 -4.2986276, 15.3068128 -4.2985035, 15.3067993 -4.2982482, 15.3066752 -4.2977966, 15.3069413 -4.2979472, 15.3070078 -4.2982456, 15.3071591 -4.298435, 15.3091128 -4.2974502, 15.3094836 -4.2972091, 15.3090521 -4.2965643, 15.3092923 -4.2966298, 15.3095438 -4.2967428, 15.3097179 -4.2969784, 15.3096097 -4.2971967, 15.3099697 -4.2969774, 15.3109312 -4.2964879, 15.3115093 -4.2965227, 15.3122657 -4.2965869, 15.3125569 -4.2965735, 15.3123376 -4.2966066, 15.3125841 -4.2967298, 15.3128448 -4.2967605, 15.3131341 -4.29678, 15.3134351 -4.2967572, 15.3137699 -4.2967879, 15.314132 -4.2968265, 15.3145257 -4.2968178, 15.3146068 -4.2966203, 15.3145074 -4.2962669, 15.3146674 -4.2964259, 15.3147313 -4.296698, 15.3153009 -4.2967192, 15.3168312 -4.296772, 15.3182805 -4.2968887, 15.3194313 -4.2970194, 15.3196317 -4.2971998, 15.3200402 -4.2971854, 15.3204358 -4.2973928, 15.3205761 -4.2976652, 15.3208653 -4.2978046, 15.3211573 -4.2978448, 15.3213502 -4.2983988, 15.3213288 -4.2988162, 15.3215855 -4.2992235, 15.3222236 -4.2996409, 15.3224702 -4.2998508, 15.3228183 -4.2998899, 15.3231354 -4.3006344, 15.3235731 -4.3009906, 15.32395 -4.3007822, 15.3240683 -4.3010187, 15.3243665 -4.3007991, 15.3244534 -4.3011806, 15.3241807 -4.3014781, 15.3243786 -4.3014421, 15.3245786 -4.3017918, 15.3255341 -4.302545, 15.3253376 -4.3028136, 15.3258977 -4.303229, 15.3261414 -4.3030673, 15.326001 -4.3027284, 15.326306 -4.3026507, 15.3255868 -4.3020772, 15.3263565 -4.302582, 15.3265541 -4.3028962, 15.3273664 -4.3037379, 15.327559 -4.3036647, 15.3279483 -4.3037858, 15.3286324 -4.304258, 15.3295343 -4.3046827, 15.3294245 -4.3049937, 15.3298309 -4.3053313, 15.3303152 -4.3056957, 15.330158 -4.3059442, 15.3305572 -4.3061151, 15.3310146 -4.306233, 15.3307906 -4.3063233, 15.3307118 -4.30658, 15.3309726 -4.3067173, 15.3314412 -4.30741, 15.3315204 -4.3076173, 15.331653 -4.3077783, 15.331806 -4.308162, 15.3321063 -4.3086372, 15.3324317 -4.3086414, 15.3326575 -4.3092761, 15.3328615 -4.3096979, 15.3328984 -4.3100057, 15.3333304 -4.3102299, 15.3337531 -4.3103747, 15.3338256 -4.3106821, 15.3334829 -4.3110306, 15.3334385 -4.3113211, 15.3335612 -4.3117324, 15.3342668 -4.3115271, 15.334249 -4.3112167, 15.3343775 -4.3109796, 15.3343965 -4.3111871, 15.3343758 -4.3115291, 15.3344348 -4.3117813, 15.3342479 -4.3120929, 15.3338503 -4.3119241, 15.3340298 -4.3123232, 15.3337493 -4.3122902, 15.333857 -4.3128346, 15.3336521 -4.3130855, 15.3337222 -4.313303, 15.3337886 -4.313539, 15.3339354 -4.3132721, 15.3342476 -4.3132562, 15.3342942 -4.3136083, 15.334438 -4.3138495, 15.3344127 -4.3141511, 15.3345062 -4.3144713, 15.3343405 -4.3143297, 15.3340979 -4.3141891, 15.3338117 -4.3142197, 15.3340083 -4.3143712, 15.3339296 -4.3146475, 15.3344321 -4.3147806, 15.3346637 -4.3152648, 15.3349641 -4.315127, 15.3348447 -4.3147873, 15.3346315 -4.3145012, 15.3348581 -4.3145274, 15.3351305 -4.3149043, 15.3353764 -4.3152536, 15.3355056 -4.3150138, 15.3357335 -4.3152403, 15.335756 -4.3154567, 15.3356814 -4.3156967, 15.336074 -4.3162797, 15.3362744 -4.3162684, 15.3362376 -4.3164752, 15.336508 -4.3167963, 15.336751 -4.3168489, 15.3367775 -4.3172035, 15.336995 -4.3173894, 15.3370235 -4.3171329, 15.3373537 -4.3172453, 15.3374103 -4.3170447, 15.3376866 -4.3166676, 15.3378676 -4.3164731, 15.3379903 -4.3169027, 15.3381291 -4.3172347, 15.3382793 -4.3174512, 15.3384831 -4.3176934, 15.3383717 -4.3178635, 15.3380262 -4.3179862, 15.3377229 -4.3181357, 15.338027 -4.3185344, 15.3383693 -4.3186565, 15.3386362 -4.3188747, 15.3386928 -4.3192578, 15.3390794 -4.3196975, 15.3390873 -4.3199333, 15.3392892 -4.3200858, 15.3394649 -4.3203024, 15.3396794 -4.3201901, 15.3393763 -4.319508, 15.339199 -4.3193288, 15.3390217 -4.3190051, 15.3386537 -4.3185584, 15.3385246 -4.3182609, 15.3385609 -4.3179621, 15.3389203 -4.318045, 15.3391323 -4.3183098, 15.3394709 -4.3183172, 15.3397143 -4.3183072, 15.3402454 -4.3186628, 15.3400925 -4.319163, 15.3400363 -4.3194045, 15.3401823 -4.3196231, 15.3404237 -4.3196846, 15.3407385 -4.3195083, 15.3410111 -4.3193119, 15.3409756 -4.3197595, 15.3409241 -4.3200411, 15.3412313 -4.3203155, 15.3414926 -4.3205378, 15.3416574 -4.3207814, 15.3418666 -4.3205621, 15.3422628 -4.3203907, 15.3421381 -4.3201903, 15.3419133 -4.3201003, 15.3421845 -4.3199926, 15.3424822 -4.3202956, 15.3423835 -4.3206467, 15.3427594 -4.3206485, 15.3431118 -4.3204058, 15.3428485 -4.3201928, 15.3429228 -4.3199592, 15.3430178 -4.320188, 15.343253 -4.3200616, 15.3435632 -4.3197996, 15.3442525 -4.3203505, 15.3444483 -4.3206876, 15.3445113 -4.3211612, 15.3433366 -4.3222548, 15.3427721 -4.3227189, 15.3421873 -4.3231723, 15.3414718 -4.323498, 15.3407128 -4.3238832, 15.338964 -4.3245919, 15.3367518 -4.3254056, 15.3365495 -4.3254911, 15.3361957 -4.3244449, 15.3357324 -4.3232275, 15.3336418 -4.317569, 15.3299618 -4.308165, 15.3296506 -4.3076622, 15.3265467 -4.3053299, 15.3257244 -4.307335, 15.3254862 -4.3078421, 15.3245077 -4.3098911, 15.3224702 -4.3091189, 15.3196944 -4.3080691, 15.3190404 -4.3082426, 15.3174672 -4.3086574, 15.3164688 -4.3088951, 15.3161363 -4.3089589, 15.315486 -4.3090512, 15.3145709 -4.3093442, 15.3148588 -4.3104843, 15.3090934 -4.3121772, 15.3076442 -4.3124648, 15.3075513 -4.3120261, 15.3054018 -4.3126757, 15.3053163 -4.3122965, 15.3027387 -4.313038, 15.3020718 -4.3132424, 15.3015948 -4.313406, 15.3013029 -4.3134977, 15.300545 -4.3137331, 15.2999041 -4.3139202, 15.2983959 -4.3143855, 15.2977458 -4.314627, 15.2973466 -4.3147746, 15.296366 -4.3151288, 15.2957555 -4.3153459, 15.2949069 -4.3156647, 15.2932205 -4.3162693, 15.2927643 -4.3164329, 15.2921689 -4.3166854, 15.2930572 -4.3181372, 15.2935808 -4.3190551, 15.2942911 -4.3206031, 15.294909 -4.3221608, 15.295129 -4.3229476, 15.2952483 -4.3233248, 15.2954927 -4.3241635, 15.295891 -4.3257459, 15.2960506 -4.3263802, 15.2962231 -4.3272293, 15.2962941 -4.3277829, 15.2951438 -4.3275222, 15.2945815 -4.3273407, 15.2941038 -4.3272751, 15.2909391 -4.3265325, 15.2887464 -4.3260721, 15.2844463 -4.3247712, 15.2788507 -4.3231071, 15.2786393 -4.3230663, 15.2782206 -4.3230721)))
