MULTIPOLYGON (((15.23634 -4.3177307, 15.2253006 -4.3181769, 15.2192012 -4.3180551, 15.2148109 -4.3179116, 15.2105623 -4.3190669, 15.2069574 -4.321656, 15.2026873 -4.3230468, 15.1982885 -4.3237314, 15.1958209 -4.3255716, 15.1901561 -4.3329961, 15.1875182 -4.3367342, 15.1856292 -4.3397114, 15.1837188 -4.3445287, 15.1833754 -4.3469785, 15.1836758 -4.349177, 15.184577 -4.3514824, 15.1846414 -4.354114, 15.1835256 -4.357302, 15.1783972 -4.3636671, 15.1764661 -4.3663737, 15.1756077 -4.3690802, 15.1757258 -4.3735892, 15.1753717 -4.378355, 15.1750373 -4.3810505, 15.1757946 -4.3846022, 15.175951 -4.3879827, 15.174567 -4.3908389, 15.1709051 -4.3941388, 15.168119 -4.3963266, 15.164557 -4.3993218, 15.1600724 -4.4054192, 15.1557379 -4.4095483, 15.1494043 -4.4137147, 15.1454865 -4.4164825, 15.1389724 -4.4248555, 15.1346581 -4.4317622, 15.1293256 -4.4387436, 15.1270621 -4.4429082, 15.1298164 -4.4444519, 15.1332443 -4.444549, 15.1357377 -4.4450453, 15.1379521 -4.4457598, 15.1407073 -4.4449041, 15.1427715 -4.4470947, 15.1437285 -4.4493881, 15.1450975 -4.4510738, 15.1470029 -4.4523831, 15.1519253 -4.4528537, 15.1539595 -4.451767, 15.155453 -4.4533073, 15.1583326 -4.4540475, 15.1623473 -4.455749, 15.1634824 -4.4583003, 15.1658231 -4.4613701, 15.1668127 -4.4644443, 15.1687414 -4.4670177, 15.1711198 -4.4705179, 15.1721985 -4.4728259, 15.1731456 -4.4754394, 15.1739838 -4.4783066, 15.1740868 -4.4815539, 15.1740739 -4.4843819, 15.1747911 -4.4863074, 15.1766875 -4.4896272, 15.1757076 -4.4924953, 15.1757051 -4.4979774, 15.1740439 -4.5009562, 15.1735718 -4.5031938, 15.1752541 -4.5067405, 15.1770397 -4.5093042, 15.1776187 -4.5112326, 15.1775672 -4.5141076, 15.1768291 -4.5162168, 15.1736776 -4.5205035, 15.173087 -4.5246249, 15.1722651 -4.5267866, 15.1722089 -4.5292045, 15.1736713 -4.5331064, 15.1772226 -4.5342455, 15.17965 -4.5338353, 15.1998288 -4.534976, 15.2042533 -4.5357425, 15.2071908 -4.5363527, 15.2105685 -4.5352987, 15.2133213 -4.5364136, 15.2149128 -4.5381287, 15.2172355 -4.5394579, 15.2204736 -4.5398554, 15.2217392 -4.5420411, 15.224964 -4.5441115, 15.2272528 -4.5464272, 15.2286416 -4.5502857, 15.2313264 -4.5529173, 15.2333514 -4.5551094, 15.2362118 -4.5561384, 15.238829 -4.5579207, 15.2421905 -4.5612836, 15.2460468 -4.5647993, 15.2492241 -4.5652476, 15.251679 -4.5655979, 15.2548152 -4.5667925, 15.2571338 -4.5692471, 15.2609285 -4.5726135, 15.2635137 -4.5727348, 15.2646263 -4.5764888, 15.2646193 -4.5828982, 15.2622403 -4.5890581, 15.2654787 -4.5905984, 15.2668369 -4.592431, 15.2666831 -4.5947143, 15.2668083 -4.597438, 15.2665971 -4.6000307, 15.2668551 -4.6020886, 15.2678014 -4.6043181, 15.2692771 -4.6058597, 15.2728678 -4.6107401, 15.277703 -4.6131021, 15.2803267 -4.6159746, 15.2830532 -4.6178512, 15.2864562 -4.6215527, 15.2891567 -4.6215339, 15.2931994 -4.6215361, 15.2952459 -4.6217313, 15.29722 -4.6220922, 15.299398 -4.6215976, 15.3013051 -4.620718, 15.3022304 -4.6226724, 15.3041482 -4.6236642, 15.3076485 -4.6242871, 15.3111461 -4.6237899, 15.3148636 -4.6243914, 15.3171918 -4.6273964, 15.3203273 -4.6292785, 15.3219205 -4.6327326, 15.3246161 -4.6328262, 15.3272206 -4.6320562, 15.3276309 -4.6346896, 15.3286529 -4.6371625, 15.329935 -4.6387692, 15.3299135 -4.6409213, 15.329766 -4.6429638, 15.3308818 -4.6447336, 15.3324884 -4.6461478, 15.3345296 -4.6457121, 15.338172 -4.6463617, 15.3402615 -4.6460382, 15.3422382 -4.6455998, 15.3440595 -4.6464686, 15.3455293 -4.6479176, 15.3492925 -4.6478695, 15.3512371 -4.6487731, 15.3530395 -4.64753, 15.354622 -4.6461665, 15.3568536 -4.6464392, 15.3577119 -4.6432418, 15.359863 -4.6442952, 15.3619069 -4.6440332, 15.3629556 -4.6423195, 15.3664693 -4.6409668, 15.3681645 -4.6395659, 15.3691462 -4.6374191, 15.3714287 -4.6375047, 15.3735235 -4.6385981, 15.3753394 -4.6372133, 15.3774637 -4.6375234, 15.3777158 -4.6335908, 15.3807642 -4.6322567, 15.3825974 -4.6292544, 15.3856122 -4.6279872, 15.388155 -4.6251854, 15.3904295 -4.6245919, 15.3899199 -4.6223034, 15.3918886 -4.6197021, 15.3913495 -4.6163495, 15.3927845 -4.6129087, 15.3955525 -4.6107966, 15.3971752 -4.6078424, 15.3979397 -4.6045807, 15.4004663 -4.6020274, 15.403752 -4.6005275, 15.4042965 -4.5968273, 15.4054552 -4.5934827, 15.4044226 -4.5898145, 15.4065764 -4.5890044, 15.4081135 -4.5870787, 15.4067348 -4.5850067, 15.4059677 -4.5828571, 15.4078077 -4.5819587, 15.4057183 -4.5793172, 15.405729 -4.5756971, 15.4060938 -4.5722186, 15.4054017 -4.5689354, 15.4043879 -4.5666306, 15.4066158 -4.5648132, 15.4059506 -4.5622091, 15.4042276 -4.5608596, 15.4055471 -4.5572405, 15.4070637 -4.5548189, 15.4058946 -4.5529546, 15.4093873 -4.5508803, 15.4113239 -4.5499539, 15.4124853 -4.548224, 15.4165022 -4.5474263, 15.4184424 -4.546716, 15.4202556 -4.5458363, 15.4222083 -4.5445609, 15.424574 -4.5449727, 15.4267922 -4.5454326, 15.4291874 -4.5458577, 15.4309936 -4.54465, 15.4315677 -4.5422688, 15.4331717 -4.540702, 15.4346939 -4.538978, 15.4363921 -4.5352963, 15.4378273 -4.5338166, 15.4393163 -4.5323162, 15.4417177 -4.531779, 15.4419126 -4.5294312, 15.4451259 -4.526998, 15.4490582 -4.5256229, 15.4511519 -4.5250436, 15.4530343 -4.5262447, 15.4551324 -4.5276036, 15.4575812 -4.5271511, 15.46091 -4.5290127, 15.4628024 -4.5302355, 15.4651854 -4.5301045, 15.4666835 -4.5315892, 15.4680152 -4.533305, 15.4690299 -4.5352675, 15.4699116 -4.5372102, 15.4714441 -4.5387301, 15.4734716 -4.539354, 15.4761306 -4.5404014, 15.4780576 -4.5426192, 15.4800292 -4.5454879, 15.4833776 -4.5451871, 15.4856402 -4.5462175, 15.4892669 -4.5455613, 15.4927661 -4.5461903, 15.4942749 -4.5486336, 15.4970934 -4.5496217, 15.4985612 -4.55153, 15.501372 -4.5530463, 15.5035339 -4.555618, 15.506618 -4.5573267, 15.5091822 -4.5568881, 15.511223 -4.5561923, 15.5122206 -4.5581456, 15.5129828 -4.5612205, 15.5173791 -4.5637486, 15.5223292 -4.5630725, 15.5253142 -4.5629123, 15.5287939 -4.5630614, 15.5325669 -4.5618642, 15.5342406 -4.5598322, 15.5395621 -4.5598322, 15.5417937 -4.5622278, 15.5445402 -4.5622278, 15.5478018 -4.5632545, 15.5508125 -4.5649653, 15.5527008 -4.5663256, 15.5550612 -4.5682764, 15.5569924 -4.5706035, 15.5593956 -4.574197, 15.5624855 -4.5747103, 15.5674637 -4.5777904, 15.5700386 -4.5776192, 15.5720986 -4.5777904, 15.5808533 -4.580186, 15.5841149 -4.5810415, 15.5866898 -4.5822393, 15.589093 -4.5825815, 15.5921829 -4.5825815, 15.5947579 -4.5877149, 15.5978478 -4.5890838, 15.6007574 -4.5890838, 15.6044996 -4.5865856, 15.6096838 -4.5866882, 15.6117438 -4.5877149, 15.6150053 -4.5868593, 15.6170309 -4.5855589, 15.6194685 -4.5851482, 15.6216658 -4.5840189, 15.62376 -4.5854904, 15.6259916 -4.5856616, 15.6299399 -4.5870304, 15.6325148 -4.5882282, 15.6361197 -4.5885704, 15.6400679 -4.5885704, 15.6436384 -4.5860722, 15.6457327 -4.5842927, 15.6488343 -4.5859045, 15.6496076 -4.589465, 15.6485527 -4.592633, 15.6455103 -4.5945542, 15.6477273 -4.5964542, 15.6456182 -4.5970031, 15.6449756 -4.5995002, 15.6440435 -4.6023919, 15.6445742 -4.6047437, 15.6436086 -4.6069361, 15.6463258 -4.6072216, 15.6470786 -4.609641, 15.6477123 -4.6122153, 15.6506815 -4.6132808, 15.651543 -4.6160888, 15.6515785 -4.6189162, 15.652003 -4.6215202, 15.6513865 -4.6240027, 15.6529246 -4.6266158, 15.6523713 -4.62916, 15.6503476 -4.6291435, 15.6488119 -4.6304928, 15.6510379 -4.6317598, 15.6508128 -4.6342119, 15.6495099 -4.6373813, 15.6475775 -4.6363477, 15.6459044 -4.6377026, 15.646525 -4.6406068, 15.646504 -4.6434504, 15.6444601 -4.6450849, 15.6429409 -4.6474162, 15.6410775 -4.6493786, 15.6398785 -4.6517122, 15.6370253 -4.6537652, 15.6374601 -4.6575524, 15.6378272 -4.6596146, 15.6374694 -4.6621304, 15.6393124 -4.6604831, 15.6415827 -4.662854, 15.6429735 -4.6612272, 15.6452406 -4.6610193, 15.6469086 -4.6627336, 15.6495415 -4.6628662, 15.6472857 -4.6648221, 15.6469917 -4.6675698, 15.6495099 -4.6688387, 15.6503134 -4.6709973, 15.6520265 -4.6731978, 15.6536892 -4.6760739, 15.6570597 -4.6757144, 15.658273 -4.6786804, 15.6614637 -4.6788602, 15.6638005 -4.6822755, 15.6662722 -4.6789051, 15.6694629 -4.6826351, 15.6729232 -4.6839383, 15.6759341 -4.6829946, 15.6772374 -4.6781411, 15.6779564 -4.6807027, 15.680473 -4.6802083, 15.6843378 -4.6814666, 15.6874386 -4.6832642, 15.6877531 -4.6863201, 15.6877531 -4.6887018, 15.6859556 -4.6896456, 15.6877531 -4.6914881, 15.6894608 -4.6938699, 15.6922021 -4.6948585, 15.6946738 -4.6969257, 15.6932807 -4.6991727, 15.6966511 -4.7015545, 15.695977 -4.7051047, 15.6945839 -4.7090144, 15.6963365 -4.7120253, 15.6993025 -4.7119354, 15.7000216 -4.7149913, 15.7012799 -4.7168338, 15.6991674 -4.7184452, 15.7010825 -4.7211397, 15.7030352 -4.7235562, 15.7001437 -4.7254969, 15.6989528 -4.7282341, 15.6999452 -4.7307361, 15.6977673 -4.729838, 15.6957932 -4.7302496, 15.6977834 -4.7329334, 15.6971343 -4.7350451, 15.6947632 -4.7353391, 15.6966622 -4.7374722, 15.6991835 -4.7391295, 15.6989045 -4.7421286, 15.6999506 -4.7442724, 15.7008733 -4.746924, 15.6988348 -4.7485866, 15.6974991 -4.7510084, 15.6959488 -4.7535905, 15.6970806 -4.756488, 15.6965657 -4.7592893, 15.6974186 -4.76216, 15.6960668 -4.7646298, 15.6938727 -4.7664421, 15.6912442 -4.7677037, 15.6886531 -4.7688637, 15.6860782 -4.7692273, 15.6833048 -4.7698367, 15.6811269 -4.7727288, 15.67764 -4.7735895, 15.6778438 -4.777246, 15.6807031 -4.7793736, 15.6788255 -4.7816188, 15.6763633 -4.7798013, 15.6758966 -4.7826399, 15.6727637 -4.7825917, 15.6728281 -4.7853769, 15.6766315 -4.7849332, 15.6750436 -4.7871837, 15.6733592 -4.7897229, 15.675462 -4.7907814, 15.6740351 -4.7927432, 15.6709403 -4.7931811, 15.6687194 -4.7945376, 15.6690145 -4.79674, 15.6689206 -4.7993914, 15.6694646 -4.802066, 15.6667228 -4.8031995, 15.6688853 -4.8045517, 15.6680377 -4.8069732, 15.6662943 -4.8083257, 15.6666966 -4.8112497, 15.6637086 -4.8102447, 15.6641056 -4.8125272, 15.6609298 -4.8118377, 15.6603022 -4.8152481, 15.6580921 -4.8161568, 15.655839 -4.8161141, 15.6569441 -4.8185837, 15.6556727 -4.8209357, 15.6530978 -4.8216306, 15.6532534 -4.8242819, 15.6518211 -4.8264254, 15.6500293 -4.828732, 15.65283 -4.8291631, 15.6507218 -4.8307346, 15.6494629 -4.8328877, 15.6489426 -4.8350899, 15.6487709 -4.8383506, 15.6466359 -4.8410393, 15.6451714 -4.8393769, 15.6439215 -4.8374312, 15.6421481 -4.8387179, 15.6401204 -4.8386645, 15.6420838 -4.8403857, 15.6400989 -4.8418182, 15.6415325 -4.8448944, 15.6403846 -4.8468027, 15.6381154 -4.84622, 15.6394756 -4.8483098, 15.637418 -4.8493576, 15.6400359 -4.8502129, 15.638212 -4.8525247, 15.6406421 -4.8533666, 15.6384909 -4.8555955, 15.6397998 -4.8582734, 15.6407869 -4.8611598, 15.6428415 -4.8631001, 15.6387323 -4.8631429, 15.6400037 -4.8649228, 15.6420207 -4.8662965, 15.6418812 -4.8684131, 15.6398588 -4.8674991, 15.6397724 -4.8699908, 15.6388012 -4.87228, 15.6371247 -4.8746012, 15.6391719 -4.8737296, 15.6397402 -4.8763854, 15.6375597 -4.8771613, 15.637615 -4.8804032, 15.6402903 -4.8815213, 15.6435603 -4.8814282, 15.6443435 -4.8845443, 15.6420583 -4.8879223, 15.6442791 -4.8871313, 15.6445259 -4.8896006, 15.6432599 -4.8918668, 15.6429595 -4.8945393, 15.6416398 -4.8967093, 15.6418115 -4.8996917, 15.6440645 -4.9002155, 15.6439143 -4.9041706, 15.6465429 -4.906362, 15.6492573 -4.9069713, 15.6502126 -4.9100696, 15.6479516 -4.9123238, 15.649518 -4.915536, 15.6505104 -4.9127567, 15.6529619 -4.9144243, 15.652286 -4.9172944, 15.6533696 -4.9198758, 15.6558533 -4.9202179, 15.6557461 -4.9230131, 15.6542655 -4.9249586, 15.6517174 -4.9234888, 15.651771 -4.925493, 15.6520285 -4.9285127, 15.6540724 -4.9304849, 15.6559821 -4.933216, 15.6550004 -4.9356958, 15.6535198 -4.9380688, 15.6539651 -4.9410724, 15.6513419 -4.9429804, 15.6537934 -4.9469566, 15.6541689 -4.9495059, 15.652463 -4.9510612, 15.6556495 -4.9525576, 15.6533857 -4.953883, 15.6553384 -4.9557001, 15.6525757 -4.955497, 15.6529405 -4.9576187, 15.6503441 -4.9591846, 15.6489086 -4.9617421, 15.6494612 -4.9644276, 15.6498264 -4.9682218, 15.6516503 -4.969654, 15.653839 -4.9724758, 15.6626273 -4.9767879, 15.6713821 -4.9817473, 15.6837417 -4.9853386, 15.6969596 -4.9865357, 15.7039977 -4.9884168, 15.7118942 -4.9935471, 15.7168723 -5.0032946, 15.7227088 -5.0214211, 15.7259704 -5.0299712, 15.7307769 -5.0325362, 15.7376434 -5.0325362, 15.7522346 -5.0301422, 15.7668258 -5.0284322, 15.7828 -5.0275, 15.7899676 -5.0269507, 15.7935724 -5.0271217, 15.798379 -5.0269507, 15.8014689 -5.0259247, 15.8050738 -5.0259247, 15.8083353 -5.0233596, 15.8103953 -5.0235306, 15.8129702 -5.0240436, 15.8145151 -5.0264377, 15.8165751 -5.0266087, 15.8179484 -5.0283187, 15.8237848 -5.0274637, 15.8265147 -5.0280348, 15.8285082 -5.0293081, 15.8326968 -5.0291329, 15.8322734 -5.0263162, 15.8336467 -5.0237619, 15.8347732 -5.0212289, 15.8358139 -5.0185998, 15.8387751 -5.016195, 15.8423585 -5.0164836, 15.8425517 -5.0141323, 15.8449656 -5.01363, 15.8427019 -5.0122619, 15.8430774 -5.0095659, 15.8452553 -5.0071104, 15.8479375 -5.0053896, 15.8496515 -5.002564, 15.8521835 -5.0006295, 15.851411 -4.9967818, 15.8538572 -4.9969421, 15.8538572 -4.9940884, 15.852677 -4.991053, 15.8520762 -4.9890543, 15.8500162 -4.9885412, 15.8520011 -4.9859119, 15.8524731 -4.9834964, 15.8539645 -4.9808778, 15.85596 -4.9789645, 15.8570114 -4.972947, 15.8562699 -4.9703838, 15.8577946 -4.9677203, 15.8567539 -4.9645458, 15.8593932 -4.962066, 15.8590606 -4.9585495, 15.8622793 -4.9569141, 15.8656911 -4.9524035, 15.8663884 -4.947508, 15.8654035 -4.9456342, 15.8633415 -4.9451778, 15.8613005 -4.9426848, 15.8582247 -4.9408373, 15.856378 -4.9378345, 15.8561443 -4.934424, 15.8555088 -4.9309223, 15.8548568 -4.9287548, 15.8530055 -4.927387, 15.8545193 -4.9258542, 15.8530105 -4.9243712, 15.8558539 -4.9237398, 15.8560179 -4.9204425, 15.8575184 -4.9185449, 15.8559218 -4.9168778, 15.8553205 -4.9132814, 15.8528391 -4.9107496, 15.8490597 -4.9095945, 15.8464784 -4.9072198, 15.8452848 -4.9036913, 15.8458753 -4.9015939, 15.8441452 -4.9005026, 15.8438042 -4.8974288, 15.84492 -4.8938156, 15.8428816 -4.8915387, 15.8428923 -4.8894435, 15.8444694 -4.8862793, 15.8457354 -4.8826341, 15.8478705 -4.8816186, 15.8484606 -4.8795875, 15.8522371 -4.8792882, 15.8535031 -4.8773746, 15.855842 -4.8770326, 15.8584169 -4.8783261, 15.861303 -4.878016, 15.8634058 -4.8760705, 15.8655087 -4.8747877, 15.866882 -4.872329, 15.8652405 -4.8693999, 15.8645645 -4.8665777, 15.8630612 -4.8646623, 15.8674601 -4.861776, 15.8696273 -4.8605573, 15.8737901 -4.8607069, 15.8762577 -4.8601297, 15.8785108 -4.8618829, 15.8822873 -4.8623319, 15.8862755 -4.8645962, 15.8902881 -4.8737127, 15.8982446 -4.8783564, 15.9044759 -4.884377, 15.9127414 -4.8895594, 15.9193675 -4.900309, 15.9212043 -4.9199348, 15.9235217 -4.9310345, 15.9205348 -4.9375677, 15.9182603 -4.9443659, 15.9178054 -4.9525835, 15.9177539 -4.9590651, 15.9217622 -4.9626308, 15.9272039 -4.9658887, 15.9335983 -4.9648968, 15.9388854 -4.962152, 15.9435546 -4.9606385, 15.9497859 -4.9636826, 15.9523523 -4.9658374, 15.9554422 -4.963161, 15.95594 -4.9600399, 15.9571245 -4.9549093, 15.9617078 -4.9517198, 15.9684186 -4.9528127, 15.9739117 -4.9534968, 15.9776883 -4.9567462, 15.9818081 -4.9599956, 15.985928 -4.964271, 15.9892492 -4.9660953, 15.9921078 -4.9646131, 15.9958844 -4.9630739, 16.0003476 -4.9630739, 16.0015492 -4.9671783, 16.0022359 -4.9721378, 16.0037808 -4.975045, 16.0063557 -4.9776102, 16.0086623 -4.98125, 16.0096708 -4.9839649, 16.0119667 -4.9844565, 16.0140911 -4.9837938, 16.0160437 -4.9844138, 16.017975 -4.985604, 16.0263864 -4.9886822, 16.0332139 -4.9892558, 16.0474983 -4.9894667, 16.0617827 -4.9896776, 16.0760671 -4.9898885, 16.0903515 -4.9900994, 16.1046359 -4.9903103, 16.1189203 -4.9905212, 16.1332047 -4.9907321, 16.1474891 -4.990943, 16.1617734 -4.9911538, 16.1760578 -4.9913647, 16.1903422 -4.9915756, 16.2046266 -4.9917865, 16.218911 -4.9919974, 16.2331954 -4.9922083, 16.2474798 -4.9924192, 16.2617642 -4.9926301, 16.2607787 -4.9888989, 16.2585067 -4.9861991, 16.255652 -4.9844756, 16.2543573 -4.9812116, 16.253602 -4.9792747, 16.2557834 -4.9783014, 16.2565996 -4.9746026, 16.2574128 -4.9714519, 16.2574298 -4.9687989, 16.2594518 -4.9687462, 16.2607704 -4.9657285, 16.2635576 -4.9633541, 16.2630165 -4.9611655, 16.2655914 -4.9600837, 16.2651196 -4.9566387, 16.2649697 -4.9530854, 16.2646771 -4.9497835, 16.2647643 -4.9463362, 16.2648934 -4.942763, 16.2661069 -4.9402869, 16.267088 -4.9377377, 16.2666742 -4.9348293, 16.2679218 -4.932279, 16.2686979 -4.929718, 16.2680136 -4.9270369, 16.2680963 -4.9237544, 16.2663455 -4.9216748, 16.266547 -4.9188574, 16.2666213 -4.9161455, 16.2634293 -4.9145009, 16.2637452 -4.9112338, 16.2635252 -4.9083985, 16.2652026 -4.9059544, 16.2664146 -4.9034036, 16.2668389 -4.9006927, 16.2679071 -4.8977831, 16.269334 -4.8953396, 16.2666818 -4.8932447, 16.2666043 -4.890122, 16.2650262 -4.8882584, 16.2657719 -4.88517, 16.2673781 -4.8829235, 16.2663341 -4.8796231, 16.2641117 -4.8776889, 16.2621751 -4.8754671, 16.2603447 -4.8726348, 16.2595533 -4.8704107, 16.2575435 -4.8672916, 16.2575386 -4.8646712, 16.2582861 -4.8625161, 16.2592827 -4.8595708, 16.2555576 -4.8577471, 16.2533708 -4.8556334, 16.2503997 -4.8551722, 16.2481102 -4.8555713, 16.2454573 -4.8529738, 16.2435096 -4.8537228, 16.240671 -4.8539195, 16.240502 -4.8501968, 16.2409684 -4.8469552, 16.2428001 -4.8440801, 16.2434379 -4.8406091, 16.2422864 -4.8371173, 16.2404444 -4.8343448, 16.24333 -4.8337532, 16.2420131 -4.8311472, 16.2421263 -4.8277967, 16.2449131 -4.8253866, 16.2483945 -4.8245666, 16.25066 -4.8241317, 16.2523261 -4.8220108, 16.2522028 -4.8198573, 16.2508148 -4.8174428, 16.2491158 -4.8145504, 16.2514999 -4.8137802, 16.2520212 -4.8118409, 16.2524214 -4.8088967, 16.2506998 -4.8066983, 16.2518636 -4.8039442, 16.2503162 -4.8056461, 16.2490966 -4.804045, 16.2500205 -4.8011097, 16.2514238 -4.7981897, 16.2506554 -4.7954152, 16.2503159 -4.7923767, 16.2516715 -4.7901367, 16.2516907 -4.7875761, 16.2530218 -4.7849413, 16.2555236 -4.7833813, 16.2567361 -4.7811535, 16.2592846 -4.7789951, 16.2591831 -4.775669, 16.2569618 -4.7740937, 16.2559308 -4.7711521, 16.259052 -4.7691482, 16.2612433 -4.7673973, 16.2611645 -4.763425, 16.2628279 -4.7599281, 16.2627971 -4.7561233, 16.2626262 -4.7539459, 16.2630752 -4.7516478, 16.26362 -4.7495649, 16.2626147 -4.7476523, 16.2608221 -4.7456693, 16.2626619 -4.7436993, 16.2956051 -4.7460172, 16.311398 -4.7201847, 16.3148312 -4.6674903, 16.3398938 -4.6308757, 16.3402371 -4.5983657, 16.3561479 -4.5812108, 16.3749127 -4.5557584, 16.3797192 -4.5381329, 16.3822941 -4.5283788, 16.384987 -4.5201208, 16.3889352 -4.5019811, 16.3947717 -4.4922265, 16.3927117 -4.4781934, 16.4038697 -4.4704922, 16.4095346 -4.4740861, 16.416916 -4.4757975, 16.4212075 -4.481445, 16.4335672 -4.4855523, 16.4419786 -4.491542, 16.4545098 -4.4970183, 16.4663545 -4.4920554, 16.4769975 -4.4929111, 16.480774 -4.4942801, 16.4841213 -4.4951343, 16.4932036 -4.4861994, 16.4968024 -4.4828101, 16.4983535 -4.4791828, 16.4991259 -4.4766585, 16.4996409 -4.4738775, 16.4998984 -4.4701125, 16.4995336 -4.456956, 16.4994416 -4.4542007, 16.4993191 -4.4519501, 16.4989328 -4.4478426, 16.4987397 -4.4448476, 16.498847 -4.4418526, 16.4991903 -4.4381943, 16.4998984 -4.4350709, 16.5040612 -4.427519, 16.5043831 -4.4253154, 16.5046835 -4.4178704, 16.5068936 -4.4145971, 16.5127516 -4.4129497, 16.51479 -4.4122009, 16.5163936 -4.4102472, 16.5166569 -4.4081361, 16.51582 -4.4054832, 16.5117216 -4.3958343, 16.5112924 -4.3923363, 16.5124404 -4.3897261, 16.5142214 -4.3887634, 16.5173972 -4.3876722, 16.5188777 -4.3855649, 16.521635 -4.380184, 16.5260768 -4.3770283, 16.5284371 -4.3745464, 16.5297675 -4.3725139, 16.5326428 -4.3667799, 16.5336728 -4.3638702, 16.5341234 -4.3595911, 16.5339303 -4.3562747, 16.5331363 -4.3535575, 16.5322137 -4.3513537, 16.5310335 -4.349642, 16.5294885 -4.3481229, 16.5270424 -4.3467108, 16.523695 -4.3427311, 16.5182233 -4.3337447, 16.5179014 -4.3316693, 16.5186953 -4.3291873, 16.5240383 -4.3227042, 16.5244674 -4.3187458, 16.5231156 -4.3112997, 16.5217852 -4.3023985, 16.5204978 -4.2995313, 16.5177297 -4.296343, 16.5164208 -4.2946527, 16.5150046 -4.2924487, 16.5104341 -4.2829696, 16.5087175 -4.2801237, 16.5070116 -4.2771173, 16.5057993 -4.2702378, 16.5033531 -4.2663434, 16.4996409 -4.2650594, 16.496036 -4.2633904, 16.4935255 -4.2612933, 16.4918303 -4.2589395, 16.490972 -4.2566071, 16.4906287 -4.2544458, 16.4908433 -4.2522418, 16.4912832 -4.250241, 16.4919376 -4.2482616, 16.4943838 -4.2431901, 16.4943623 -4.2383326, 16.4932787 -4.2360429, 16.4913153 -4.2355935, 16.4876675 -4.2375301, 16.4844918 -4.2376692, 16.4823971 -4.243973, 16.4782772 -4.244829, 16.4724407 -4.2451713, 16.4674625 -4.2453425, 16.4650593 -4.2438018, 16.4645443 -4.241234, 16.4595661 -4.2400356, 16.4559612 -4.2381525, 16.4516697 -4.235071, 16.4496098 -4.2331879, 16.4501247 -4.2297641, 16.4487515 -4.2268538, 16.4432583 -4.2193212, 16.4384518 -4.2141853, 16.4411984 -4.2066525, 16.4389668 -4.2022014, 16.442915 -4.1994622, 16.4478932 -4.1962093, 16.4492664 -4.1934701, 16.4508114 -4.1902173, 16.4485798 -4.1886765, 16.4424 -4.1893613, 16.4362202 -4.1876492, 16.4324436 -4.1799451, 16.4305554 -4.1763497, 16.4260922 -4.1706999, 16.4236969 -4.1703504, 16.4221841 -4.1721266, 16.4198613 -4.1709656, 16.4173239 -4.1696281, 16.4166319 -4.1666908, 16.4137942 -4.1656315, 16.4133892 -4.1582018, 16.410471 -4.1556336, 16.4058361 -4.1554624, 16.4027033 -4.1531725, 16.3999567 -4.1527444, 16.3974673 -4.1524367, 16.3946646 -4.1505757, 16.392374 -4.1483446, 16.3889784 -4.1482109, 16.3861245 -4.1492542, 16.3833564 -4.1483232, 16.3804758 -4.1475688, 16.3775843 -4.1471515, 16.3714962 -4.1435289, 16.3672955 -4.1426931, 16.3184526 -4.1157219, 16.3156903 -4.1138851, 16.311598 -4.1129667, 16.3059711 -4.1141913, 16.3016742 -4.1141913, 16.3008557 -4.1160281, 16.2983676 -4.1155709, 16.2954211 -4.1140688, 16.2928021 -4.1134157, 16.2911651 -4.1116524, 16.2884151 -4.1108034, 16.2861234 -4.1101503, 16.2828496 -4.1090401, 16.2807543 -4.1069502, 16.2792483 -4.1042725, 16.2774805 -4.101203, 16.2748614 -4.1010071, 16.2722423 -4.0998968, 16.2691649 -4.1015295, 16.2647125 -4.1005499, 16.2643851 -4.0980682, 16.2622243 -4.0959782, 16.2581648 -4.0953251, 16.2579683 -4.0927128, 16.2578374 -4.0905575, 16.2569862 -4.0878145, 16.2550219 -4.0836999, 16.2524028 -4.0827856, 16.2486706 -4.0807609, 16.2458551 -4.0788016, 16.2469682 -4.0770382, 16.2461825 -4.0750789, 16.2445456 -4.0709642, 16.2435634 -4.0669149, 16.2406169 -4.0672415, 16.239111 -4.0695274, 16.2378014 -4.0724664, 16.2355398 -4.0742275, 16.2319856 -4.0747172, 16.2279957 -4.0753752, 16.2244771 -4.0721162, 16.223418 -4.0668861, 16.2236481 -4.0638258, 16.220053 -4.0618776, 16.2158118 -4.0617523, 16.2140211 -4.0631625, 16.2133928 -4.0651994, 16.211979 -4.0686465, 16.2110994 -4.0713101, 16.2079376 -4.0726669, 16.2032359 -4.0723408, 16.2012724 -4.0704606, 16.1983664 -4.0684237, 16.1970704 -4.0656425, 16.1959709 -4.0636056, 16.1937324 -4.0619604, 16.1911799 -4.0612944, 16.1886273 -4.0601976, 16.1859569 -4.0592183, 16.183608 -4.0591073, 16.180518 -4.0591073, 16.1755399 -4.0585936, 16.1717633 -4.0585936, 16.1657552 -4.0580799, 16.1578587 -4.0570525, 16.1527089 -4.0543128, 16.1482457 -4.0510594, 16.1448125 -4.0467786, 16.1409314 -4.0436429, 16.1370877 -4.0414703, 16.1338262 -4.0409566, 16.1314229 -4.0392443, 16.1295346 -4.0363333, 16.1238698 -4.0347922, 16.1218099 -4.0322236, 16.1173467 -4.0313674, 16.1120252 -4.0305113, 16.1039571 -4.0298263, 16.0972623 -4.031025, 16.0900525 -4.0308537, 16.0873059 -4.0270865, 16.0811261 -4.0276002, 16.074088 -4.0281139, 16.0689382 -4.0255454, 16.0632733 -4.0246892, 16.0550336 -4.0252029, 16.048874 -4.0252286, 16.0471574 -4.0230025, 16.0457841 -4.0214614, 16.0432092 -4.0200915, 16.0406343 -4.0185503, 16.0373727 -4.0178653, 16.0351411 -4.0151255, 16.0335961 -4.0130706, 16.0305062 -4.0135843, 16.026558 -4.0123857, 16.0202066 -4.0110157, 16.0180265 -4.0099, 16.0157434 -4.0094746, 16.0123101 -4.0086184, 16.0105935 -4.0103308, 16.007332 -4.009817, 16.0049287 -4.0084471, 16.0032121 -4.004851, 16.0009805 -4.0039948, 16.0018388 -4.0017687, 15.9987489 -3.9997138, 15.996689 -3.9993713, 15.9939424 -3.9971451, 15.9970323 -3.9974876, 15.9990922 -3.9950902, 15.9989206 -3.9909803, 15.9972039 -3.9875554, 15.9978906 -3.9853292, 16.0009805 -3.9841305, 16.0018388 -3.9781368, 16.0013238 -3.9759106, 16.0023538 -3.9731706, 16.0032625 -3.9682071, 16.0034696 -3.9651111, 15.9999505 -3.9644369, 16.0022735 -3.9629866, 16.0004655 -3.9618681, 15.9992639 -3.9582718, 15.9968606 -3.9569018, 15.9925691 -3.9562168, 15.9891359 -3.9539905, 15.9863788 -3.9520635, 15.9821784 -3.9517214, 15.9805101 -3.9487562, 15.9739655 -3.9458877, 15.9716588 -3.9443892, 15.9682363 -3.9421843, 15.9658867 -3.9400008, 15.9632045 -3.9376888, 15.9589559 -3.9370466, 15.9563702 -3.9341459, 15.9546536 -3.9324655, 15.9510781 -3.9307206, 15.9495761 -3.9293131, 15.9471782 -3.9281732, 15.944952 -3.9284729, 15.9429081 -3.9296556, 15.9395178 -3.9319729, 15.9393408 -3.9344883, 15.9378226 -3.9359814, 15.9359451 -3.9385021, 15.9338422 -3.9413385, 15.9296473 -3.9416382, 15.9277 -3.9427193, 15.9267934 -3.9450098, 15.9242399 -3.9478355, 15.9230812 -3.9496444, 15.9204713 -3.9497092, 15.919192 -3.9526145, 15.9168585 -3.9534547, 15.912921 -3.9510304, 15.909241 -3.949061, 15.9057622 -3.9490432, 15.9019025 -3.9480496, 15.8984184 -3.946846, 15.8947221 -3.9469691, 15.8929467 -3.9483935, 15.8863405 -3.9532973, 15.8761965 -3.9588792, 15.8619998 -3.9624916, 15.8498432 -3.9654285, 15.8354376 -3.9716211, 15.8229797 -3.9764966, 15.8051524 -3.9813865, 15.7940945 -3.9810396, 15.7715213 -3.9827788, 15.7487719 -3.9866187, 15.7397572 -3.9867492, 15.7104732 -3.9913697, 15.6946878 -3.9944421, 15.6821398 -3.9967982, 15.6609443 -4.0030077, 15.6366087 -4.0102397, 15.6198924 -4.0169892, 15.6047851 -4.0213245, 15.5766141 -4.0297203, 15.5527276 -4.0426733, 15.5374274 -4.0591385, 15.5168005 -4.0781757, 15.5122155 -4.0896083, 15.5051079 -4.1120831, 15.4962501 -4.1238766, 15.4879703 -4.1370664, 15.4838203 -4.179206, 15.4823273 -4.1863195, 15.4786717 -4.1939411, 15.4772462 -4.1997774, 15.477071 -4.2068663, 15.4756084 -4.2135058, 15.4754719 -4.2215264, 15.4746702 -4.2265511, 15.471665 -4.2287507, 15.4695074 -4.2311644, 15.4669342 -4.2335353, 15.4657235 -4.2361737, 15.4651904 -4.2392036, 15.4649397 -4.2434446, 15.4643317 -4.2456768, 15.4619214 -4.2471493, 15.458431 -4.2478262, 15.4554966 -4.2493711, 15.454311 -4.2521743, 15.4520216 -4.2547539, 15.4502955 -4.2578075, 15.4489534 -4.2620283, 15.4468296 -4.2643607, 15.4440029 -4.2657168, 15.4417138 -4.2645025, 15.4397277 -4.2649411, 15.4375844 -4.2655216, 15.4347544 -4.2681471, 15.4325649 -4.2700545, 15.4310107 -4.2728336, 15.4306995 -4.2753618, 15.4264634 -4.2801009, 15.4221308 -4.2819728, 15.4186071 -4.2821924, 15.4151438 -4.2797579, 15.4129634 -4.2810642, 15.4098313 -4.2831634, 15.4069585 -4.2846399, 15.4037746 -4.2853889, 15.3934053 -4.2849342, 15.3881614 -4.2837616, 15.3850632 -4.2820862, 15.3815954 -4.2805762, 15.3793348 -4.2800116, 15.3772047 -4.2801153, 15.3747195 -4.2815391, 15.370508 -4.2792743, 15.368215 -4.2771757, 15.3656488 -4.2756839, 15.3634293 -4.275739, 15.359418 -4.274735, 15.3556261 -4.2740814, 15.3513229 -4.2734305, 15.3465301 -4.2735331, 15.3283798 -4.2752528, 15.3139673 -4.2776414, 15.3068075 -4.2803295, 15.2908322 -4.2881139, 15.2832463 -4.2911882, 15.2782237 -4.2929375, 15.2752998 -4.2956859, 15.2711942 -4.2990923, 15.2593968 -4.3113513, 15.2574885 -4.3123581, 15.2527919 -4.3143009, 15.2491293 -4.3153525, 15.2403314 -4.3171818, 15.23634 -4.3177307)))
